[
  {
    "OBJECT_NAME": "STARLINK-2408",
    "OBJECT_ID": "21018AN",
    "EPOCH": "2025-11-11T07:17:29.436288",
    "MEAN_MOTION": 15.06386685,
    "ECCENTRICITY": 0.0001958,
    "INCLINATION": 53.0537,
    "RA_OF_ASC_NODE": 63.0638,
    "ARG_OF_PERICENTER": 96.3014,
    "MEAN_ANOMALY": 263.8198,
    "EPHEMERIS_TYPE": 0,
    "CLASSIFICATION_TYPE": "U",
    "NORAD_CAT_ID": 47823,
    "ELEMENT_SET_NO": 999,
    "REV_AT_EPOCH": 25875,
    "BSTAR": 0.00076674,
    "MEAN_MOTION_DOT": 0.00011153,
    "MEAN_MOTION_DDOT": 0.0,
    "TLE_LINE1": "1 47823U 21018AN  25315.30381292  .00011153  00000+0  76674-3 0  9993",
    "TLE_LINE2": "2 47823  53.0537  63.0638 0001958  96.3014 263.8198 15.06386685258753",
    "COMMENT": "Grouped by shell and plane from TLE"
  },
  {
    "OBJECT_NAME": "STARLINK-2409",
    "OBJECT_ID": "21018AP",
    "EPOCH": "2025-11-11T07:02:54.993120",
    "MEAN_MOTION": 15.0640603,
    "ECCENTRICITY": 0.0001227,
    "INCLINATION": 53.0539,
    "RA_OF_ASC_NODE": 63.1171,
    "ARG_OF_PERICENTER": 94.7987,
    "MEAN_ANOMALY": 265.3142,
    "EPHEMERIS_TYPE": 0,
    "CLASSIFICATION_TYPE": "U",
    "NORAD_CAT_ID": 47824,
    "ELEMENT_SET_NO": 999,
    "REV_AT_EPOCH": 25874,
    "BSTAR": 0.00022207,
    "MEAN_MOTION_DOT": 3.028e-05,
    "MEAN_MOTION_DDOT": 0.0,
    "TLE_LINE1": "1 47824U 21018AP  25315.29369205  .00003028  00000+0  22207-3 0  9997",
    "TLE_LINE2": "2 47824  53.0539  63.1171 0001227  94.7987 265.3142 15.06406030258741",
    "COMMENT": "Grouped by shell and plane from TLE"
  },
  {
    "OBJECT_NAME": "STARLINK-2410",
    "OBJECT_ID": "21018AQ",
    "EPOCH": "2025-11-11T07:29:26.620224",
    "MEAN_MOTION": 15.06403145,
    "ECCENTRICITY": 0.000166,
    "INCLINATION": 53.0539,
    "RA_OF_ASC_NODE": 63.035,
    "ARG_OF_PERICENTER": 88.3566,
    "MEAN_ANOMALY": 271.7613,
    "EPHEMERIS_TYPE": 0,
    "CLASSIFICATION_TYPE": "U",
    "NORAD_CAT_ID": 47825,
    "ELEMENT_SET_NO": 999,
    "REV_AT_EPOCH": 25875,
    "BSTAR": 0.00022575,
    "MEAN_MOTION_DOT": 3.083e-05,
    "MEAN_MOTION_DDOT": 0.0,
    "TLE_LINE1": "1 47825U 21018AQ  25315.31211366  .00003083  00000+0  22575-3 0  9994",
    "TLE_LINE2": "2 47825  53.0539  63.0350 0001660  88.3566 271.7613 15.06403145258752",
    "COMMENT": "Grouped by shell and plane from TLE"
  },
  {
    "OBJECT_NAME": "STARLINK-2411",
    "OBJECT_ID": "21018AR",
    "EPOCH": "2025-11-11T07:24:08.839296",
    "MEAN_MOTION": 15.06401996,
    "ECCENTRICITY": 0.0001563,
    "INCLINATION": 53.056,
    "RA_OF_ASC_NODE": 63.0523,
    "ARG_OF_PERICENTER": 89.9821,
    "MEAN_ANOMALY": 270.1348,
    "EPHEMERIS_TYPE": 0,
    "CLASSIFICATION_TYPE": "U",
    "NORAD_CAT_ID": 47826,
    "ELEMENT_SET_NO": 999,
    "REV_AT_EPOCH": 25875,
    "BSTAR": 0.00010727000000000001,
    "MEAN_MOTION_DOT": 1.317e-05,
    "MEAN_MOTION_DDOT": 0.0,
    "TLE_LINE1": "1 47826U 21018AR  25315.30843564  .00001317  00000+0  10727-3 0  9999",
    "TLE_LINE2": "2 47826  53.0560  63.0523 0001563  89.9821 270.1348 15.06401996258752",
    "COMMENT": "Grouped by shell and plane from TLE"
  },
  {
    "OBJECT_NAME": "STARLINK-2422",
    "OBJECT_ID": "21018AX",
    "EPOCH": "2025-11-11T06:20:26.932704",
    "MEAN_MOTION": 15.06394282,
    "ECCENTRICITY": 0.0001527,
    "INCLINATION": 53.0522,
    "RA_OF_ASC_NODE": 63.2501,
    "ARG_OF_PERICENTER": 92.3702,
    "MEAN_ANOMALY": 267.7462,
    "EPHEMERIS_TYPE": 0,
    "CLASSIFICATION_TYPE": "U",
    "NORAD_CAT_ID": 47832,
    "ELEMENT_SET_NO": 999,
    "REV_AT_EPOCH": 25874,
    "BSTAR": 0.0004973,
    "MEAN_MOTION_DOT": 7.132e-05,
    "MEAN_MOTION_DDOT": 0.0,
    "TLE_LINE1": "1 47832U 21018AX  25315.26420061  .00007132  00000+0  49730-3 0  9991",
    "TLE_LINE2": "2 47832  53.0522  63.2501 0001527  92.3702 267.7462 15.06394282258748",
    "COMMENT": "Grouped by shell and plane from TLE"
  },
  {
    "OBJECT_NAME": "STARLINK-2423",
    "OBJECT_ID": "21018AY",
    "EPOCH": "2025-11-11T06:57:35.637120",
    "MEAN_MOTION": 15.06393978,
    "ECCENTRICITY": 0.0001251,
    "INCLINATION": 53.0554,
    "RA_OF_ASC_NODE": 63.1346,
    "ARG_OF_PERICENTER": 85.0961,
    "MEAN_ANOMALY": 275.017,
    "EPHEMERIS_TYPE": 0,
    "CLASSIFICATION_TYPE": "U",
    "NORAD_CAT_ID": 47833,
    "ELEMENT_SET_NO": 999,
    "REV_AT_EPOCH": 25880,
    "BSTAR": 0.0,
    "MEAN_MOTION_DOT": -5.47e-06,
    "MEAN_MOTION_DDOT": 0.0,
    "TLE_LINE1": "1 47833U 21018AY  25315.28999580 -.00000547  00000+0 -17843-4 0  9997",
    "TLE_LINE2": "2 47833  53.0554  63.1346 0001251  85.0961 275.0170 15.06393978258806",
    "COMMENT": "Grouped by shell and plane from TLE"
  },
  {
    "OBJECT_NAME": "STARLINK-2424",
    "OBJECT_ID": "21018AZ",
    "EPOCH": "2025-11-11T07:13:31.135584",
    "MEAN_MOTION": 15.06402493,
    "ECCENTRICITY": 0.0001684,
    "INCLINATION": 53.0494,
    "RA_OF_ASC_NODE": 63.0831,
    "ARG_OF_PERICENTER": 100.7763,
    "MEAN_ANOMALY": 259.3416,
    "EPHEMERIS_TYPE": 0,
    "CLASSIFICATION_TYPE": "U",
    "NORAD_CAT_ID": 47834,
    "ELEMENT_SET_NO": 999,
    "REV_AT_EPOCH": 25880,
    "BSTAR": 6.8064e-05,
    "MEAN_MOTION_DOT": 7.32e-06,
    "MEAN_MOTION_DDOT": 0.0,
    "TLE_LINE1": "1 47834U 21018AZ  25315.30105481  .00000732  00000+0  68064-4 0  9995",
    "TLE_LINE2": "2 47834  53.0494  63.0831 0001684 100.7763 259.3416 15.06402493258804",
    "COMMENT": "Grouped by shell and plane from TLE"
  },
  {
    "OBJECT_NAME": "STARLINK-2426",
    "OBJECT_ID": "21018BB",
    "EPOCH": "2025-11-11T07:40:05.284704",
    "MEAN_MOTION": 15.06400517,
    "ECCENTRICITY": 0.0001376,
    "INCLINATION": 53.0521,
    "RA_OF_ASC_NODE": 63.0869,
    "ARG_OF_PERICENTER": 97.0925,
    "MEAN_ANOMALY": 263.022,
    "EPHEMERIS_TYPE": 0,
    "CLASSIFICATION_TYPE": "U",
    "NORAD_CAT_ID": 47836,
    "ELEMENT_SET_NO": 999,
    "REV_AT_EPOCH": 25875,
    "BSTAR": 0.00017462,
    "MEAN_MOTION_DOT": 2.32e-05,
    "MEAN_MOTION_DDOT": 0.0,
    "TLE_LINE1": "1 47836U 21018BB  25315.31950561  .00002320  00000+0  17462-3 0  9995",
    "TLE_LINE2": "2 47836  53.0521  63.0869 0001376  97.0925 263.0220 15.06400517258758",
    "COMMENT": "Grouped by shell and plane from TLE"
  },
  {
    "OBJECT_NAME": "STARLINK-2429",
    "OBJECT_ID": "21018BD",
    "EPOCH": "2025-11-11T06:36:22.540032",
    "MEAN_MOTION": 15.06400196,
    "ECCENTRICITY": 0.0001277,
    "INCLINATION": 53.0566,
    "RA_OF_ASC_NODE": 63.2022,
    "ARG_OF_PERICENTER": 94.1671,
    "MEAN_ANOMALY": 265.9464,
    "EPHEMERIS_TYPE": 0,
    "CLASSIFICATION_TYPE": "U",
    "NORAD_CAT_ID": 47838,
    "ELEMENT_SET_NO": 999,
    "REV_AT_EPOCH": 25874,
    "BSTAR": 0.00017139,
    "MEAN_MOTION_DOT": 2.272e-05,
    "MEAN_MOTION_DDOT": 0.0,
    "TLE_LINE1": "1 47838U 21018BD  25315.27526088  .00002272  00000+0  17139-3 0  9992",
    "TLE_LINE2": "2 47838  53.0566  63.2022 0001277  94.1671 265.9464 15.06400196258741",
    "COMMENT": "Grouped by shell and plane from TLE"
  },
  {
    "OBJECT_NAME": "STARLINK-2435",
    "OBJECT_ID": "21018BJ",
    "EPOCH": "2025-11-11T06:27:46.051200",
    "MEAN_MOTION": 15.06390395,
    "ECCENTRICITY": 0.0001451,
    "INCLINATION": 53.0563,
    "RA_OF_ASC_NODE": 68.2266,
    "ARG_OF_PERICENTER": 80.819,
    "MEAN_ANOMALY": 279.2963,
    "EPHEMERIS_TYPE": 0,
    "CLASSIFICATION_TYPE": "U",
    "NORAD_CAT_ID": 47843,
    "ELEMENT_SET_NO": 999,
    "REV_AT_EPOCH": 25869,
    "BSTAR": 1.3161000000000002e-06,
    "MEAN_MOTION_DOT": -2.62e-06,
    "MEAN_MOTION_DDOT": 0.0,
    "TLE_LINE1": "1 47843U 21018BJ  25315.26928300 -.00000262  00000+0  13161-5 0  9991",
    "TLE_LINE2": "2 47843  53.0563  68.2266 0001451  80.8190 279.2963 15.06390395258696",
    "COMMENT": "Grouped by shell and plane from TLE"
  },
  {
    "OBJECT_NAME": "STARLINK-2446",
    "OBJECT_ID": "21018BK",
    "EPOCH": "2025-11-11T06:25:43.881600",
    "MEAN_MOTION": 15.06408527,
    "ECCENTRICITY": 0.0001357,
    "INCLINATION": 53.0594,
    "RA_OF_ASC_NODE": 63.2338,
    "ARG_OF_PERICENTER": 78.9666,
    "MEAN_ANOMALY": 281.1476,
    "EPHEMERIS_TYPE": 0,
    "CLASSIFICATION_TYPE": "U",
    "NORAD_CAT_ID": 47844,
    "ELEMENT_SET_NO": 999,
    "REV_AT_EPOCH": 25874,
    "BSTAR": 0.00015611,
    "MEAN_MOTION_DOT": 2.045e-05,
    "MEAN_MOTION_DDOT": 0.0,
    "TLE_LINE1": "1 47844U 21018BK  25315.26786900  .00002045  00000+0  15611-3 0  9990",
    "TLE_LINE2": "2 47844  53.0594  63.2338 0001357  78.9666 281.1476 15.06408527258741",
    "COMMENT": "Grouped by shell and plane from TLE"
  },
  {
    "OBJECT_NAME": "STARLINK-2453",
    "OBJECT_ID": "21018BL",
    "EPOCH": "2025-11-11T00:30:08.987904",
    "MEAN_MOTION": 15.06398183,
    "ECCENTRICITY": 0.0001548,
    "INCLINATION": 53.0561,
    "RA_OF_ASC_NODE": 64.3421,
    "ARG_OF_PERICENTER": 92.8176,
    "MEAN_ANOMALY": 267.299,
    "EPHEMERIS_TYPE": 0,
    "CLASSIFICATION_TYPE": "U",
    "NORAD_CAT_ID": 47845,
    "ELEMENT_SET_NO": 999,
    "REV_AT_EPOCH": 25871,
    "BSTAR": 0.00010051,
    "MEAN_MOTION_DOT": 1.216e-05,
    "MEAN_MOTION_DDOT": 0.0,
    "TLE_LINE1": "1 47845U 21018BL  25315.02093736  .00001216  00000+0  10051-3 0  9995",
    "TLE_LINE2": "2 47845  53.0561  64.3421 0001548  92.8176 267.2990 15.06398183258713",
    "COMMENT": "Grouped by shell and plane from TLE"
  },
  {
    "OBJECT_NAME": "STARLINK-3305",
    "OBJECT_ID": "21125L",
    "EPOCH": "2025-11-11T06:28:56.958816",
    "MEAN_MOTION": 15.08841265,
    "ECCENTRICITY": 0.0001289,
    "INCLINATION": 53.2189,
    "RA_OF_ASC_NODE": 60.6591,
    "ARG_OF_PERICENTER": 96.1496,
    "MEAN_ANOMALY": 263.9643,
    "EPHEMERIS_TYPE": 0,
    "CLASSIFICATION_TYPE": "U",
    "NORAD_CAT_ID": 50166,
    "ELEMENT_SET_NO": 999,
    "REV_AT_EPOCH": 21871,
    "BSTAR": 3.8885e-05,
    "MEAN_MOTION_DOT": 3.31e-06,
    "MEAN_MOTION_DDOT": 0.0,
    "TLE_LINE1": "1 50166U 21125L   25315.27010369  .00000331  00000+0  38885-4 0  9995",
    "TLE_LINE2": "2 50166  53.2189  60.6591 0001289  96.1496 263.9643 15.08841265218712",
    "COMMENT": "Grouped by shell and plane from TLE"
  }
]